{
  "norad_id": 64896,
  "name": "SKYCRAFT-4C",
  "history": [
    {
      "epoch": "2026-03-28T18:25:52.292640Z",
      "apogee_km": 587.2046762653708,
      "perigee_km": 578.8238678029184,
      "latitude_deg": -2.6565481266903595e-05,
      "longitude_deg": 50.983139510910625,
      "height_km": 589.9370049842745,
      "semi_major_axis_km": 6961.151272034144,
      "eccentricity": 0.00060197,
      "inclination_deg": 97.6756,
      "raan_deg": 153.6347,
      "arg_perigee_deg": 157.7134,
      "mean_anomaly_deg": 202.4349,
      "mean_motion_rev_day": 14.94793342
    },
    {
      "epoch": "2026-03-29T04:04:14.216736Z",
      "apogee_km": 587.2206089381834,
      "perigee_km": 578.779534125244,
      "latitude_deg": -2.5571529920164874e-05,
      "longitude_deg": -93.61108807708648,
      "height_km": 589.914221648015,
      "semi_major_axis_km": 6961.137071531713,
      "eccentricity": 0.0006063,
      "inclination_deg": 97.6756,
      "raan_deg": 154.0277,
      "arg_perigee_deg": 156.4508,
      "mean_anomaly_deg": 203.6991,
      "mean_motion_rev_day": 14.94797916
    },
    {
      "epoch": "2026-03-30T02:33:45.034272Z",
      "apogee_km": 587.2627121997575,
      "perigee_km": 578.6892662199862,
      "latitude_deg": 1.820314822803876e-05,
      "longitude_deg": -70.99630905327108,
      "height_km": 589.8620976292605,
      "semi_major_axis_km": 6961.112989209872,
      "eccentricity": 0.00061581,
      "inclination_deg": 97.6754,
      "raan_deg": 154.9446,
      "arg_perigee_deg": 153.6571,
      "mean_anomaly_deg": 206.4964,
      "mean_motion_rev_day": 14.94805673
    },
    {
      "epoch": "2026-03-30T13:48:30.223584Z",
      "apogee_km": 587.2907209482073,
      "perigee_km": 578.6295846487528,
      "latitude_deg": 6.513680549761536e-06,
      "longitude_deg": 120.31205213153179,
      "height_km": 589.829427076196,
      "semi_major_axis_km": 6961.09715279848,
      "eccentricity": 0.00062211,
      "inclination_deg": 97.6753,
      "raan_deg": 155.4031,
      "arg_perigee_deg": 152.0396,
      "mean_anomaly_deg": 208.116,
      "mean_motion_rev_day": 14.94810774
    },
    {
      "epoch": "2026-03-30T21:50:28.126464Z",
      "apogee_km": 587.3012322866252,
      "perigee_km": 578.5948639952148,
      "latitude_deg": -5.1309092655184665e-05,
      "longitude_deg": -0.1816950850257418,
      "height_km": 589.7946791688338,
      "semi_major_axis_km": 6961.08504814092,
      "eccentricity": 0.00062536,
      "inclination_deg": 97.6749,
      "raan_deg": 155.7305,
      "arg_perigee_deg": 150.8717,
      "mean_anomaly_deg": 209.2853,
      "mean_motion_rev_day": 14.94814673
    },
    {
      "epoch": "2026-03-31T13:54:23.698080Z",
      "apogee_km": 587.3301601898429,
      "perigee_km": 578.5132832129366,
      "latitude_deg": -5.50964659072491e-05,
      "longitude_deg": 118.83187390479667,
      "height_km": 589.7326854012656,
      "semi_major_axis_km": 6961.058721701389,
      "eccentricity": 0.0006333,
      "inclination_deg": 97.6748,
      "raan_deg": 156.3854,
      "arg_perigee_deg": 148.7153,
      "mean_anomaly_deg": 211.4445,
      "mean_motion_rev_day": 14.94823153
    },
    {
      "epoch": "2026-04-01T04:21:55.423008Z",
      "apogee_km": 587.3609404250756,
      "perigee_km": 578.448440307232,
      "latitude_deg": 9.408746916040738e-06,
      "longitude_deg": -98.05482345436684,
      "height_km": 589.6705156576425,
      "semi_major_axis_km": 6961.0416903661535,
      "eccentricity": 0.00064017,
      "inclination_deg": 97.6746,
      "raan_deg": 156.9747,
      "arg_perigee_deg": 146.6577,
      "mean_anomaly_deg": 213.5048,
      "mean_motion_rev_day": 14.94828639
    },
    {
      "epoch": "2026-04-02T14:06:08.390304Z",
      "apogee_km": 587.4086785629015,
      "perigee_km": 578.2665521615618,
      "latitude_deg": 3.2944281891124896e-06,
      "longitude_deg": 115.88112168141267,
      "height_km": 589.4721785258812,
      "semi_major_axis_km": 6960.974615362232,
      "eccentricity": 0.00065667,
      "inclination_deg": 97.6742,
      "raan_deg": 158.3502,
      "arg_perigee_deg": 141.8075,
      "mean_anomaly_deg": 218.3612,
      "mean_motion_rev_day": 14.94850245
    },
    {
      "epoch": "2026-04-02T22:08:05.422272Z",
      "apogee_km": 587.3946777972496,
      "perigee_km": 578.2147270988944,
      "latitude_deg": -1.9269819061659863e-05,
      "longitude_deg": -4.6088916788245236,
      "height_km": 589.4038112256852,
      "semi_major_axis_km": 6960.941702448072,
      "eccentricity": 0.00065939,
      "inclination_deg": 97.6742,
      "raan_deg": 158.6777,
      "arg_perigee_deg": 140.8069,
      "mean_anomaly_deg": 219.363,
      "mean_motion_rev_day": 14.94860847
    }
  ]
}